EUTELSAT 21B            
1 38992U 12062B   25285.63552707  .00000120  00000+0  00000+0 0  9990
2 38992   0.0781  25.8996 0002700 182.2656  63.6630  1.00271997 47345
EUTELSAT 70B            
1 39020U 12069A   25285.57390678 -.00000054  00000+0  00000+0 0  9997
2 39020   0.0665  15.1273 0004140 187.0521  96.3349  1.00271999 47020
EUTELSAT 117 WEST A     
1 39122U 13012A   25285.53672661 -.00000023  00000+0  00000+0 0  9996
2 39122   0.0601  67.5030 0002842 143.9880 246.3094  1.00272547 45955
EUTELSAT 7B             
1 39163U 13022A   25285.56225242  .00000038  00000+0  00000+0 0  9999
2 39163   0.0708  13.8368 0001622 292.2272 284.7309  1.00271087 45474
EXPRESS-AT1             
1 39612U 14010A   25285.64237377  .00000068  00000+0  00000+0 0  9990
2 39612   0.0185 219.9741 0000231 289.6957 159.0685  1.00271323 42337
EXPRESS-AT2             
1 39613U 14010B   25285.23079185 -.00000290  00000+0  00000+0 0  9995
2 39613   0.0174 228.3626 0000312 164.2420 211.3956  1.00268655 42017
EUTELSAT 3B             
1 39773U 14030A   25285.63188706  .00000010  00000+0  00000+0 0  9997
2 39773   0.0670  18.8276 0004555 180.4031  52.8153  1.00272710 41584
EUTELSAT 115 WEST B     
1 40425U 15010B   25285.53715994 -.00000035  00000+0  00000+0 0  9994
2 40425   0.0106  75.9279 0000343  27.6540 356.2735  1.00269843 38912
